CCSDS_OMM_VERS,COMMENT,CREATION_DATE,ORIGINATOR,OBJECT_NAME,OBJECT_ID,CENTER_NAME,REF_FRAME,TIME_SYSTEM,MEAN_ELEMENT_THEORY,EPOCH,MEAN_MOTION,ECCENTRICITY,INCLINATION,RA_OF_ASC_NODE,ARG_OF_PERICENTER,MEAN_ANOMALY,EPHEMERIS_TYPE,CLASSIFICATION_TYPE,NORAD_CAT_ID,ELEMENT_SET_NO,REV_AT_EPOCH,BSTAR,MEAN_MOTION_DOT,MEAN_MOTION_DDOT,SEMIMAJOR_AXIS,PERIOD,APOAPSIS,PERIAPSIS,OBJECT_TYPE,RCS_SIZE,COUNTRY_CODE,LAUNCH_DATE,SITE,DECAY_DATE,FILE,GP_ID,TLE_LINE0,TLE_LINE1,TLE_LINE2
"2.0","GENERATED VIA SPACE-TRACK.ORG API","2019-11-26T22:40:17","18 SPCS","AEOLUS","2018-066A","EARTH","TEME","UTC","SGP4","2019-11-26T19:25:05.517696","15.87073450","0.00039090","96.7178","335.2536","101.8003","2.2816","0","U","43600","999","7307","0.00005951000000","0.00015206","0.0000000000000","6688.629","90.733","313.109","307.880","PAYLOAD","LARGE","ESA","2018-08-22","FRGUI","","2657567","143683542","0 AEOLUS","1 43600U 18066A   19330.80909164  .00015206  00000-0  59510-4 0  9995","2 43600  96.7178 335.2536 0003909 101.8003   2.2816 15.87073450 73070"
"2.0","GENERATED VIA SPACE-TRACK.ORG API","2019-11-26T22:20:16","18 SPCS","STARLINK-44","2019-029AC","EARTH","TEME","UTC","SGP4","2019-11-26T22:00:00.999936","15.08586761","0.00018990","53.0027","53.5504","114.8630","197.8734","0","U","44261","999","2830","0.08316300000000","0.01438943","0.0000000000000","6918.654","95.453","541.833","539.205","PAYLOAD","LARGE","US","2019-05-24","AFETR","","2657418","143679942","0 STARLINK-44","1 44261U 19029AC  19330.91667824  .01438943  00000-0  83163-1 0  9991","2 44261  53.0027  53.5504 0001899 114.8630 197.8734 15.08586761 28307"
"2.0","GENERATED VIA SPACE-TRACK.ORG API","2019-11-27T06:50:16","18 SPCS","AEOLUS","2018-066A","EARTH","TEME","UTC","SGP4","2019-11-27T01:21:22.037184","15.87072100","0.00043040","96.7194","335.4984","100.8979","335.7799","0","U","43600","999","7311","0.00005073300000","0.00012941","0.0000000000000","6688.633","90.733","313.377","307.619","PAYLOAD","LARGE","ESA","2018-08-22","FRGUI","","2657779","143726269","0 AEOLUS","1 43600U 18066A   19331.05650506  .00012941  00000-0  50733-4 0  9997","2 43600  96.7194 335.4984 0004304 100.8979 335.7799 15.87072100 73118"
"2.0","GENERATED VIA SPACE-TRACK.ORG API","2019-11-27T06:20:15","18 SPCS","STARLINK-44","2019-029AC","EARTH","TEME","UTC","SGP4","2019-11-27T06:00:00.999648","15.09104146","0.00014780","53.0010","52.0503","112.7134","211.7001","0","U","44261","999","2835","0.01944100000000","0.00326127","0.0000000000000","6917.073","95.420","539.960","537.915","PAYLOAD","LARGE","US","2019-05-24","AFETR","","2657641","143722880","0 STARLINK-44","1 44261U 19029AC  19331.25001157  .00326127  00000-0  19441-1 0  9997","2 44261  53.0010  52.0503 0001478 112.7134 211.7001 15.09104146 28353"
"2.0","GENERATED VIA SPACE-TRACK.ORG API","2019-11-27T14:20:15","18 SPCS","STARLINK-44","2019-029AC","EARTH","TEME","UTC","SGP4","2019-11-27T12:00:00.999648","15.09394946","0.00014960","52.9995","50.9239","115.8688","127.5740","0","U","44261","999","2838","0.00832750000000","0.00136915","0.0000000000000","6916.184","95.402","539.084","537.014","PAYLOAD","LARGE","US","2019-05-24","AFETR","","2657852","143727004","0 STARLINK-44","1 44261U 19029AC  19331.50001157  .00136915  00000-0  83275-2 0  9996","2 44261  52.9995  50.9239 0001496 115.8688 127.5740 15.09394946 28380"
"2.0","GENERATED VIA SPACE-TRACK.ORG API","2019-11-27T14:40:17","18 SPCS","AEOLUS","2018-066A","EARTH","TEME","UTC","SGP4","2019-11-27T12:17:11.068224","15.87071060","0.00036660","96.7189","335.9449","92.9917","63.9460","0","U","43600","999","7318","0.00003606300000","0.00009153","0.0000000000000","6688.636","90.733","312.953","308.049","PAYLOAD","LARGE","ESA","2018-08-22","FRGUI","","2657977","143730103","0 AEOLUS","1 43600U 18066A   19331.51193366  .00009153  00000-0  36063-4 0  9995","2 43600  96.7189 335.9449 0003666  92.9917  63.9460 15.87071060 73182"
"2.0","GENERATED VIA SPACE-TRACK.ORG API","2019-11-27T22:40:14","18 SPCS","AEOLUS","2018-066A","EARTH","TEME","UTC","SGP4","2019-11-27T13:47:01.680864","15.87071847","0.00037200","96.7182","336.0063","93.0810","60.0821","0","U","43600","999","7319","0.00003539800000","0.00008982","0.0000000000000","6688.634","90.733","312.987","308.011","PAYLOAD","LARGE","ESA","2018-08-22","FRGUI","","2658188","143772924","0 AEOLUS","1 43600U 18066A   19331.57432501  .00008982  00000-0  35398-4 0  9997","2 43600  96.7182 336.0063 0003720  93.0810  60.0821 15.87071847 73197"
"2.0","GENERATED VIA SPACE-TRACK.ORG API","2019-11-27T22:30:18","18 SPCS","STARLINK-44","2019-029AC","EARTH","TEME","UTC","SGP4","2019-11-27T22:00:00.999936","15.09608008","0.00020140","53.0026","49.0364","120.7246","228.2988","0","U","44261","999","2845","0.07034600000000","0.01235323","0.0000000000000","6915.533","95.389","538.791","536.006","PAYLOAD","LARGE","US","2019-05-24","AFETR","","2658087","143770423","0 STARLINK-44","1 44261U 19029AC  19331.91667824  .01235323  00000-0  70346-1 0  9998","2 44261  53.0026  49.0364 0002014 120.7246 228.2988 15.09608008 28455"
"2.0","GENERATED VIA SPACE-TRACK.ORG API","2019-11-28T03:34:25","18 SPCS","AEOLUS","2018-066A","EARTH","TEME","UTC","SGP4","2019-11-27T22:28:19.381152","15.87083911","0.00038550","96.7183","336.3621","94.4297","325.6723","0","U","43600","999","7325","0.00003807800000","0.00009679","0.0000000000000","6688.600","90.732","313.043","307.886","PAYLOAD","LARGE","ESA","2018-08-22","FRGUI","","2658198","143791181","0 AEOLUS","1 43600U 18066A   19331.93633543 +.00009679 +00000-0 +38078-4 0  9998","2 43600 096.7183 336.3621 0003855 094.4297 325.6723 15.87083911073257"
"2.0","GENERATED VIA SPACE-TRACK.ORG API","2019-11-28T06:40:16","18 SPCS","AEOLUS","2018-066A","EARTH","TEME","UTC","SGP4","2019-11-27T23:58:08.219136","15.87090607","0.00038450","96.7183","336.4237","92.4818","323.7485","0","U","43600","999","7326","0.00004275800000","0.00010891","0.0000000000000","6688.581","90.732","313.018","307.874","PAYLOAD","LARGE","ESA","2018-08-22","FRGUI","","2658368","143796167","0 AEOLUS","1 43600U 18066A   19331.99870624  .00010891  00000-0  42758-4 0  9995","2 43600  96.7183 336.4237 0003845  92.4818 323.7485 15.87090607 73262"
"2.0","GENERATED VIA SPACE-TRACK.ORG API","2019-11-28T06:20:15","18 SPCS","STARLINK-44","2019-029AC","EARTH","TEME","UTC","SGP4","2019-11-28T06:00:00.999648","15.10036130","0.00016560","53.0024","47.5344","114.5978","247.3022","0","U","44261","999","2850","0.03804800000000","0.00669826","0.0000000000000","6914.226","95.361","537.236","534.946","PAYLOAD","LARGE","US","2019-05-24","AFETR","","2658236","143792864","0 STARLINK-44","1 44261U 19029AC  19332.25001157  .00669826  00000-0  38048-1 0  9998","2 44261  53.0024  47.5344 0001656 114.5978 247.3022 15.10036130 28508"
"2.0","GENERATED VIA SPACE-TRACK.ORG API","2019-11-28T12:40:17","18 SPCS","AEOLUS","2018-066A","EARTH","TEME","UTC","SGP4","2019-11-28T10:53:27.889728","15.87129376","0.00036640","96.7192","336.8756","87.8665","46.8164","0","U","43600","999","7333","0.00007775600000","0.00019974","0.0000000000000","6688.472","90.729","312.788","307.886","PAYLOAD","LARGE","ESA","2018-08-22","FRGUI","","2658513","143799472","0 AEOLUS","1 43600U 18066A   19332.45379502  .00019974  00000-0  77756-4 0  9993","2 43600  96.7192 336.8756 0003664  87.8665  46.8164 15.87129376 73330"
"2.0","GENERATED VIA SPACE-TRACK.ORG API","2019-11-28T12:30:17","18 SPCS","STARLINK-44","2019-029AC","EARTH","TEME","UTC","SGP4","2019-11-28T12:00:00.999648","15.10375977","0.00014710","52.9987","46.4049","115.3889","166.4282","0","U","44261","999","2853","0.00927010000000","0.00157063","0.0000000000000","6913.189","95.340","536.071","534.037","PAYLOAD","LARGE","US","2019-05-24","AFETR","","2658401","143796721","0 STARLINK-44","1 44261U 19029AC  19332.50001157  .00157063  00000-0  92701-2 0  9998","2 44261  52.9987  46.4049 0001471 115.3889 166.4282 15.10375977 28536"
"2.0","GENERATED VIA SPACE-TRACK.ORG API","2019-11-28T21:30:17","18 SPCS","AEOLUS","2018-066A","EARTH","TEME","UTC","SGP4","2019-11-28T13:51:00.984672","15.87135167","0.00036520","96.7194","336.9971","86.7756","31.9192","0","U","43600","999","7335","0.00007871700000","0.00020229","0.0000000000000","6688.456","90.729","312.763","307.878","PAYLOAD","LARGE","ESA","2018-08-22","FRGUI","","2658703","143823610","0 AEOLUS","1 43600U 18066A   19332.57709473  .00020229  00000-0  78717-4 0  9993","2 43600  96.7194 336.9971 0003652  86.7756  31.9192 15.87135167 73351"
"2.0","GENERATED VIA SPACE-TRACK.ORG API","2019-11-28T22:30:14","18 SPCS","AEOLUS","2018-066A","EARTH","TEME","UTC","SGP4","2019-11-28T19:57:06.154272","15.87146084","0.00036060","96.7196","337.2480","85.3063","44.9671","0","U","43600","999","7339","0.00007910800000","0.00020341","0.0000000000000","6688.425","90.728","312.702","307.878","PAYLOAD","LARGE","ESA","2018-08-22","FRGUI","","2658731","143824237","0 AEOLUS","1 43600U 18066A   19332.83132123  .00020341  00000-0  79108-4 0  9994","2 43600  96.7196 337.2480 0003606  85.3063  44.9671 15.87146084 73397"
"2.0","GENERATED VIA SPACE-TRACK.ORG API","2019-11-28T21:20:17","18 SPCS","STARLINK-44","2019-029AC","EARTH","TEME","UTC","SGP4","2019-11-28T20:00:01.000224","15.10517088","0.00018810","53.0029","44.8932","120.8101","174.6147","0","U","44261","999","2858","0.07013800000000","0.01265127","0.0000000000000","6912.758","95.331","535.924","533.323","PAYLOAD","LARGE","US","2019-05-24","AFETR","","2658574","143820437","0 STARLINK-44","1 44261U 19029AC  19332.83334491  .01265127  00000-0  70138-1 0  9995","2 44261  53.0029  44.8932 0001881 120.8101 174.6147 15.10517088 28588"
